[{"OBJECT_NAME":"OBJECT A","OBJECT_ID":"2025-013A","EPOCH":"2026-03-09T23:29:31.895232","MEAN_MOTION":15.29260221,"ECCENTRICITY":0.0010321,"INCLINATION":97.6364,"RA_OF_ASC_NODE":244.5149,"ARG_OF_PERICENTER":282.3775,"MEAN_ANOMALY":77.6309,"EPHEMERIS_TYPE":0,"CLASSIFICATION_TYPE":"U","NORAD_CAT_ID":62729,"ELEMENT_SET_NO":999,"REV_AT_EPOCH":6276,"BSTAR":0.0013206527,"MEAN_MOTION_DOT":0.00037616,"MEAN_MOTION_DDOT":0},{"OBJECT_NAME":"STARLINK-34240","OBJECT_ID":"2025-120K","EPOCH":"2026-03-09T12:15:33.545952","MEAN_MOTION":15.30192145,"ECCENTRICITY":0.00013494,"INCLINATION":53.1594,"RA_OF_ASC_NODE":117.8863,"ARG_OF_PERICENTER":70.2304,"MEAN_ANOMALY":289.8842,"EPHEMERIS_TYPE":0,"CLASSIFICATION_TYPE":"U","NORAD_CAT_ID":64265,"ELEMENT_SET_NO":999,"REV_AT_EPOCH":4388,"BSTAR":0.0010257868,"MEAN_MOTION_DOT":0.00030138,"MEAN_MOTION_DDOT":0}]
